     2.11           NAVIGATION DATA     GPS(GPS)            RINEX VERSION / TYPE
cnvtToRINEX 2.30.0  convertToRINEX OPR  11-May-16 20:50 UTC PGM / RUN BY / DATE 
----------------------------------------------------------- COMMENT             
    0.3166D-07  0.0000D+00 -0.1192D-06  0.1192D-06          ION ALPHA           
    0.1393D+06 -0.3277D+05 -0.6554D+05 -0.3932D+06          ION BETA            
    0.186264514923D-08 0.710542735760D-14   319488     1764 DELTA-UTC: A0,A1,T,W
    16                                                      LEAP SECONDS        
                                                            END OF HEADER       
13 13 10 28 20 00  0.0 0.654752366245D-04-0.386535248253D-11 0.000000000000D+00
    0.820000000000D+02-0.115312500000D+02 0.424839124826D-08-0.563058795922D+00
   -0.694766640663D-06 0.502711208537D-02 0.617839396000D-05 0.515368288040D+04
    0.158400000000D+06-0.108033418655D-06-0.202521669029D+01-0.614672899246D-07
    0.979708156526D+00 0.270718750000D+03 0.220143664075D+01-0.806426448041D-08
   -0.281083136812D-09 0.100000000000D+01 0.176400000000D+04 0.000000000000D+00
    0.240000000000D+01 0.000000000000D+00-0.111758708954D-07 0.820000000000D+02
    0.151218000000D+06 0.400000000000D+01 0.000000000000D+00 0.000000000000D+00
23 13 10 28 20 00  0.0 0.351378694177D-04-0.341060513165D-11 0.000000000000D+00
    0.900000000000D+02-0.837500000000D+01 0.482377235805D-08-0.132027694098D+01
   -0.553205609322D-06 0.886505446397D-02 0.542588531971D-05 0.515363848114D+04
    0.158400000000D+06 0.968575477600D-07-0.211713170740D+01-0.189989805222D-06
    0.953980694017D+00 0.269781250000D+03-0.281269973724D+01-0.827534470132D-08
   -0.231438211759D-09 0.100000000000D+01 0.176400000000D+04 0.000000000000D+00
    0.240000000000D+01 0.000000000000D+00-0.200234353542D-07 0.900000000000D+02
    0.151218000000D+06 0.400000000000D+01 0.000000000000D+00 0.000000000000D+00
17 13 10 28 20 00  0.0-0.354708172381D-04-0.363797880709D-11 0.000000000000D+00
    0.630000000000D+02-0.445625000000D+02 0.467090884782D-08-0.587765637541D-01
   -0.234879553318D-05 0.864514522254D-02 0.605545938015D-05 0.515369779396D+04
    0.158400000000D+06-0.633299350739D-07 0.105422335181D+01 0.912696123123D-07
    0.966448186595D+00 0.268718750000D+03-0.218565586109D+01-0.834106172442D-08
   -0.464305054455D-10 0.100000000000D+01 0.176400000000D+04 0.000000000000D+00
    0.240000000000D+01 0.000000000000D+00-0.107102096081D-07 0.630000000000D+02
    0.151218000000D+06 0.400000000000D+01 0.000000000000D+00 0.000000000000D+00
29 13 10 28 19 59 44.0 0.482613220811D-03 0.306954461848D-11 0.000000000000D+00
    0.310000000000D+02-0.568750000000D+02 0.456054710795D-08 0.283967330459D+01
   -0.313110649586D-05 0.141393661033D-02 0.632368028164D-05 0.515355518532D+04
    0.158384000000D+06 0.428408384323D-07 0.106311511273D+01 0.707805156708D-07
    0.967122084197D+00 0.258781250000D+03-0.101216408691D+01-0.815426822943D-08
   -0.846463830045D-10 0.100000000000D+01 0.176400000000D+04 0.000000000000D+00
    0.240000000000D+01 0.000000000000D+00-0.931322574615D-08 0.310000000000D+02
    0.153198000000D+06 0.400000000000D+01 0.000000000000D+00 0.000000000000D+00
26 13 10 28 20 00  0.0 0.261810142547D-03 0.192130755750D-10 0.000000000000D+00
    0.800000000000D+01-0.631250000000D+01 0.431517974456D-08-0.131674244313D+01
   -0.651925802231D-07 0.211115007987D-01 0.618956983089D-05 0.515368147469D+04
    0.158400000000D+06 0.191852450371D-06-0.203317459745D+01 0.545755028725D-06
    0.977141017640D+00 0.267281250000D+03 0.125412268971D+01-0.806640742682D-08
   -0.381801617856D-09 0.100000000000D+01 0.176400000000D+04 0.000000000000D+00
    0.240000000000D+01 0.000000000000D+00-0.605359673500D-08 0.800000000000D+01
    0.155418000000D+06 0.400000000000D+01 0.000000000000D+00 0.000000000000D+00
 2 13 10 28 22 00  0.0 0.458220951259D-03 0.216004991671D-11 0.000000000000D+00
    0.950000000000D+02-0.235625000000D+02 0.510735559900D-08-0.473530917332D+00
   -0.107102096081D-05 0.126802307786D-01 0.954978168011D-05 0.515375362396D+04
    0.165600000000D+06 0.104308128357D-06 0.203859205959D+01 0.182539224625D-06
    0.938813662615D+00 0.185750000000D+03-0.254695951829D+01-0.841499337539D-08
   -0.275011455331D-10 0.100000000000D+01 0.176400000000D+04 0.000000000000D+00
    0.240000000000D+01 0.000000000000D+00-0.176951289177D-07 0.950000000000D+02
    0.158418000000D+06 0.400000000000D+01 0.000000000000D+00 0.000000000000D+00
10 13 10 28 22 00  0.0-0.995844602585D-04-0.125055521494D-11 0.000000000000D+00
    0.470000000000D+02 0.527812500000D+02 0.511664170009D-08 0.205110488507D+01
    0.261887907982D-05 0.130288020009D-01 0.779516994953D-05 0.515367192268D+04
    0.165600000000D+06-0.299885869026D-06 0.312308618983D+01-0.223517417908D-06
    0.943261132532D+00 0.221468750000D+03 0.826297405941D+00-0.827213028172D-08
    0.242152943785D-09 0.100000000000D+01 0.176400000000D+04 0.000000000000D+00
    0.240000000000D+01 0.000000000000D+00-0.279396772385D-08 0.470000000000D+02
    0.158418000000D+06 0.400000000000D+01 0.000000000000D+00 0.000000000000D+00
 4 13 10 28 22 00  0.0 0.255554914474D-05 0.341060513165D-12 0.000000000000D+00
    0.490000000000D+02-0.355312500000D+02 0.498449333844D-08 0.281685308016D+01
   -0.191107392311D-05 0.106693563284D-01 0.101570039988D-04 0.515363263702D+04
    0.165600000000D+06 0.298023223877D-07 0.205485806870D+01-0.158324837685D-06
    0.937855461513D+00 0.171781250000D+03 0.104426692593D+01-0.801569102856D-08
   -0.303584074067D-10 0.100000000000D+01 0.176400000000D+04 0.000000000000D+00
    0.240000000000D+01 0.000000000000D+00-0.651925802231D-08 0.490000000000D+02
    0.158418000000D+06 0.400000000000D+01 0.000000000000D+00 0.000000000000D+00
12 13 10 28 22 00  0.0 0.164803583175D-03 0.227373675443D-11 0.000000000000D+00
    0.360000000000D+02 0.274375000000D+02 0.394730727834D-08-0.216955168144D+01
    0.150501728058D-05 0.452893029433D-02 0.639259815216D-05 0.515373682213D+04
    0.165600000000D+06-0.130385160446D-07 0.117785825110D-02-0.167638063431D-07
    0.985939429752D+00 0.269625000000D+03 0.331709710984D+00-0.784246952748D-08
    0.316441752498D-09 0.100000000000D+01 0.176400000000D+04 0.000000000000D+00
    0.240000000000D+01 0.000000000000D+00-0.121071934700D-07 0.360000000000D+02
    0.158418000000D+06 0.400000000000D+01 0.000000000000D+00 0.000000000000D+00
 5 13 10 28 22 00  0.0-0.398438423872D-03 0.568434188608D-12 0.000000000000D+00
    0.670000000000D+02 0.524062500000D+02 0.504771025739D-08 0.177835294950D+01
    0.289082527161D-05 0.339942111168D-02 0.772997736931D-05 0.515373349380D+04
    0.165600000000D+06-0.335276126862D-07 0.310457887319D+01 0.137835741043D-06
    0.948446944519D+00 0.225281250000D+03 0.309076557205D+00-0.833784730481D-08
    0.180721813503D-09 0.100000000000D+01 0.176400000000D+04 0.000000000000D+00
    0.240000000000D+01 0.000000000000D+00-0.102445483208D-07 0.670000000000D+02
    0.158418000000D+06 0.400000000000D+01 0.000000000000D+00 0.000000000000D+00
29 13 10 28 22 00  0.0 0.482635106891D-03 0.306954461848D-11 0.000000000000D+00
    0.320000000000D+02-0.493125000000D+02 0.451840249531D-08-0.239096884584D+01
   -0.252574682236D-05 0.141500250902D-02 0.617653131485D-05 0.515355320549D+04
    0.165600000000D+06-0.149011611938D-07 0.106305619516D+01 0.502914190292D-07
    0.967121741874D+00 0.261437500000D+03-0.101211891200D+01-0.812105256015D-08
   -0.485734518507D-10 0.100000000000D+01 0.176400000000D+04 0.000000000000D+00
    0.240000000000D+01 0.000000000000D+00-0.931322574615D-08 0.320000000000D+02
    0.158418000000D+06 0.400000000000D+01 0.000000000000D+00 0.000000000000D+00
26 13 10 28 22 00  0.0 0.261948443949D-03 0.192130755750D-10 0.000000000000D+00
    0.900000000000D+01-0.812500000000D+01 0.450911639423D-08-0.266559182437D+00
   -0.271946191788D-06 0.211113377009D-01 0.621564686298D-05 0.515368146515D+04
    0.165600000000D+06-0.188127160072D-06-0.203323555139D+01 0.191852450371D-06
    0.977136839546D+00 0.269968750000D+03 0.125411516885D+01-0.850856870175D-08
   -0.277511559470D-09 0.100000000000D+01 0.176400000000D+04 0.000000000000D+00
    0.240000000000D+01 0.000000000000D+00-0.605359673500D-08 0.900000000000D+01
    0.158418000000D+06 0.400000000000D+01 0.000000000000D+00 0.000000000000D+00
25 13 10 28 22 00  0.0 0.161768868566D-03 0.341060513165D-11 0.000000000000D+00
    0.580000000000D+02 0.280937500000D+02 0.417410243955D-08-0.310330994682D+01
    0.150315463543D-05 0.274941755924D-02 0.635720789433D-05 0.515370249367D+04
    0.165600000000D+06 0.502914190292D-07-0.388179636211D-01 0.931322574615D-08
    0.974728199056D+00 0.264062500000D+03 0.701377420899D+00-0.797354641593D-08
    0.313227332890D-09 0.100000000000D+01 0.176400000000D+04 0.000000000000D+00
    0.240000000000D+01 0.000000000000D+00 0.558793544769D-08 0.580000000000D+02
    0.158418000000D+06 0.400000000000D+01 0.000000000000D+00 0.000000000000D+00
15 13 10 28 22 00  0.0-0.144303310663D-03-0.193267624127D-11 0.000000000000D+00
    0.160000000000D+02-0.606250000000D+01 0.529593488266D-08 0.270221909450D+00
   -0.366941094398D-06 0.573538173921D-02 0.496208667755D-05 0.515358620834D+04
    0.165600000000D+06 0.204890966415D-07-0.216070153615D+01 0.391155481339D-07
    0.939009298649D+00 0.268343750000D+03 0.171114171798D+00-0.861928759935D-08
   -0.327156484524D-09 0.100000000000D+01 0.176400000000D+04 0.000000000000D+00
    0.240000000000D+01 0.000000000000D+00-0.102445483208D-07 0.160000000000D+02
    0.158808000000D+06 0.400000000000D+01 0.000000000000D+00 0.000000000000D+00
